{
  "norad_id": 63415,
  "name": "STARLINK-33664",
  "history": [
    {
      "epoch": "2026-03-28T17:46:07.035744",
      "apogee_km": 483.41990589252237,
      "perigee_km": 482.4861115423355,
      "latitude_deg": -7.287574290038517,
      "longitude_deg": -127.42551584006287,
      "semi_major_axis_km": 6861.090008717429,
      "eccentricity": 6.805e-05,
      "inclination_deg": 43.0021,
      "raan_deg": 359.4342,
      "arg_perigee_deg": 351.8126,
      "mean_anomaly_deg": 8.2715,
      "mean_motion_rev_day": 15.2761209
    }
  ]
}